IRIDIUM 39              
1 25042U 97069D   25123.24769073  .00001297  00000+0  33489-3 0  9993
2 25042  86.3941 230.3829 0020116  97.1329 263.2163 14.49164915442719
IRIDIUM 38              
1 25043U 97069E   25123.08082092  .00000900  00000+0  29083-3 0  9990
2 25043  86.3947 252.1249 0001028 157.3725 202.7519 14.38076264439732
IRIDIUM 42              
1 25077U 97077A   25122.96200743  .00000848  00000+0  28363-3 0  9998
2 25077  86.3941 258.2922 0001432  98.6171 261.5188 14.36314193434700
IRIDIUM 44              
1 25078U 97077B   25123.24692970  .00000806  00000+0  24888-3 0  9990
2 25078  86.3969 240.2081 0003077 132.0560 228.0901 14.40204501437261
IRIDIUM 45              
1 25104U 97082A   25123.13651948  .00026973  00000+0  99959-3 0  9998
2 25104  86.3581  69.7358 0122964 139.0476 222.0085 15.20567863445440
IRIDIUM 24              
1 25105U 97082B   25122.93076842  .00000904  00000+0  26935-3 0  9990
2 25105  86.3867  99.4990 0009708 218.9894 141.0607 14.42050212436696
IRIDIUM 51              
1 25262U 98018A   25122.94910717  .00061240  00000+0  14714-2 0  9994
2 25262  86.3834  78.1758 0096621  65.3113 295.8160 15.36292273440076
IRIDIUM 57              
1 25273U 98019B   25122.66579321  .00000528  00000+0  17566-3 0  9999
2 25273  86.3990 164.3290 0002228  93.6037 266.5414 14.35862009418259
